{
    "week": 294,
    "satellites": [
        {
            "Name": "BEIDOU-3 M24 (C46)",
            "Line1": "1 44542U 19061A   24331.14410877  .00000053  00000+0  00000+0 0  9997",
            "Line2": "2 44542  54.4245 201.8909 0009055  13.7908 346.3239  1.86229505 35210",
            "SatelliteNumber": "44542",
            "Classification": "U",
            "LaunchYear": "19",
            "LaunchNumber": "061",
            "PieceOfLaunch": "A",
            "EpochYear": "24",
            "EpochDay": 331.14410877,
            "FirstDerivativeMeanMotion": 5.3e-07,
            "SecondDerivativeMeanMotion": "00000+0",
            "BSTAR": "00000+0",
            "SetNumber": "999",
            "Inclination": 54.4245,
            "RAAN": 201.8909,
            "Eccentricity": 0.0009055,
            "ArgumentOfPerigee": 13.7908,
            "MeanAnomaly": 346.3239,
            "MeanMotion": 1.86229505,
            "RevolutionNumber": "3521"
        },
        {
            "Name": "BEIDOU-3 M23 (C45)",
            "Line1": "1 44543U 19061B   24331.52427483  .00000059  00000+0  00000+0 0  9997",
            "Line2": "2 44543  54.4227 201.8468 0005753  10.0598 157.5355  1.86229774 35227",
            "SatelliteNumber": "44543",
            "Classification": "U",
            "LaunchYear": "19",
            "LaunchNumber": "061",
            "PieceOfLaunch": "B",
            "EpochYear": "24",
            "EpochDay": 331.52427483,
            "FirstDerivativeMeanMotion": 5.9e-07,
            "SecondDerivativeMeanMotion": "00000+0",
            "BSTAR": "00000+0",
            "SetNumber": "999",
            "Inclination": 54.4227,
            "RAAN": 201.8468,
            "Eccentricity": 0.0005753,
            "ArgumentOfPerigee": 10.0598,
            "MeanAnomaly": 157.5355,
            "MeanMotion": 1.86229774,
            "RevolutionNumber": "3522"
        },
        {
            "Name": "BEIDOU-3 IGSO-3 (C40)",
            "Line1": "1 44709U 19073A   24331.29036419 -.00000209  00000+0  00000+0 0  9991",
            "Line2": "2 44709  55.7778 287.0054 0040232 190.5796 169.2760  1.00252739 18749",
            "SatelliteNumber": "44709",
            "Classification": "U",
            "LaunchYear": "19",
            "LaunchNumber": "073",
            "PieceOfLaunch": "A",
            "EpochYear": "24",
            "EpochDay": 331.29036419,
            "FirstDerivativeMeanMotion": -2.09e-06,
            "SecondDerivativeMeanMotion": "00000+0",
            "BSTAR": "00000+0",
            "SetNumber": "999",
            "Inclination": 55.7778,
            "RAAN": 287.0054,
            "Eccentricity": 0.0040232,
            "ArgumentOfPerigee": 190.5796,
            "MeanAnomaly": 169.276,
            "MeanMotion": 1.00252739,
            "RevolutionNumber": "1874"
        },
        {
            "Name": "BEIDOU-3 M22 (C44)",
            "Line1": "1 44793U 19078A   24330.45142638 -.00000078  00000+0  00000+0 0  9991",
            "Line2": "2 44793  54.4382 319.7540 0005439  11.0728 348.9468  1.86232154 34061",
            "SatelliteNumber": "44793",
            "Classification": "U",
            "LaunchYear": "19",
            "LaunchNumber": "078",
            "PieceOfLaunch": "A",
            "EpochYear": "24",
            "EpochDay": 330.45142638,
            "FirstDerivativeMeanMotion": -7.8e-07,
            "SecondDerivativeMeanMotion": "00000+0",
            "BSTAR": "00000+0",
            "SetNumber": "999",
            "Inclination": 54.4382,
            "RAAN": 319.754,
            "Eccentricity": 0.0005439,
            "ArgumentOfPerigee": 11.0728,
            "MeanAnomaly": 348.9468,
            "MeanMotion": 1.86232154,
            "RevolutionNumber": "3406"
        },
        {
            "Name": "BEIDOU-3 M21 (C43)",
            "Line1": "1 44794U 19078B   24331.11774372 -.00000078  00000+0  00000+0 0  9992",
            "Line2": "2 44794  54.4112 319.7034 0003676 355.0090   4.9941  1.86232685 34070",
            "SatelliteNumber": "44794",
            "Classification": "U",
            "LaunchYear": "19",
            "LaunchNumber": "078",
            "PieceOfLaunch": "B",
            "EpochYear": "24",
            "EpochDay": 331.11774372,
            "FirstDerivativeMeanMotion": -7.8e-07,
            "SecondDerivativeMeanMotion": "00000+0",
            "BSTAR": "00000+0",
            "SetNumber": "999",
            "Inclination": 54.4112,
            "RAAN": 319.7034,
            "Eccentricity": 0.0003676,
            "ArgumentOfPerigee": 355.009,
            "MeanAnomaly": 4.9941,
            "MeanMotion": 1.86232685,
            "RevolutionNumber": "3407"
        },
        {
            "Name": "BEIDOU-3 M19 (C41)",
            "Line1": "1 44864U 19090A   24331.39333483 -.00000036  00000+0  00000+0 0  9992",
            "Line2": "2 44864  56.0629  81.6383 0016818 278.6508  98.1853  1.86231661 33650",
            "SatelliteNumber": "44864",
            "Classification": "U",
            "LaunchYear": "19",
            "LaunchNumber": "090",
            "PieceOfLaunch": "A",
            "EpochYear": "24",
            "EpochDay": 331.39333483,
            "FirstDerivativeMeanMotion": -3.6e-07,
            "SecondDerivativeMeanMotion": "00000+0",
            "BSTAR": "00000+0",
            "SetNumber": "999",
            "Inclination": 56.0629,
            "RAAN": 81.6383,
            "Eccentricity": 0.0016818,
            "ArgumentOfPerigee": 278.6508,
            "MeanAnomaly": 98.1853,
            "MeanMotion": 1.86231661,
            "RevolutionNumber": "3365"
        },
        {
            "Name": "BEIDOU-3 M20 (C42)",
            "Line1": "1 44865U 19090B   24331.35200296 -.00000036  00000+0  00000+0 0  9994",
            "Line2": "2 44865  56.0646  81.6733 0014130 291.9631 146.8564  1.86231619 33630",
            "SatelliteNumber": "44865",
            "Classification": "U",
            "LaunchYear": "19",
            "LaunchNumber": "090",
            "PieceOfLaunch": "B",
            "EpochYear": "24",
            "EpochDay": 331.35200296,
            "FirstDerivativeMeanMotion": -3.6e-07,
            "SecondDerivativeMeanMotion": "00000+0",
            "BSTAR": "00000+0",
            "SetNumber": "999",
            "Inclination": 56.0646,
            "RAAN": 81.6733,
            "Eccentricity": 0.001413,
            "ArgumentOfPerigee": 291.9631,
            "MeanAnomaly": 146.8564,
            "MeanMotion": 1.86231619,
            "RevolutionNumber": "3363"
        },
        {
            "Name": "BEIDOU-3 G2 (C60)",
            "Line1": "1 45344U 20017A   24330.92343115 -.00000124  00000+0  00000+0 0  9996",
            "Line2": "2 45344   2.5399  35.2259 0004395 219.0857 223.5020  1.00271358 17569",
            "SatelliteNumber": "45344",
            "Classification": "U",
            "LaunchYear": "20",
            "LaunchNumber": "017",
            "PieceOfLaunch": "A",
            "EpochYear": "24",
            "EpochDay": 330.92343115,
            "FirstDerivativeMeanMotion": -1.24e-06,
            "SecondDerivativeMeanMotion": "00000+0",
            "BSTAR": "00000+0",
            "SetNumber": "999",
            "Inclination": 2.5399,
            "RAAN": 35.2259,
            "Eccentricity": 0.0004395,
            "ArgumentOfPerigee": 219.0857,
            "MeanAnomaly": 223.502,
            "MeanMotion": 1.00271358,
            "RevolutionNumber": "1756"
        },
        {
            "Name": "BEIDOU-3 G3 (C61)",
            "Line1": "1 45807U 20040A   24331.03521987 -.00000335  00000+0  00000+0 0  9998",
            "Line2": "2 45807   1.0965  56.4774 0003426 300.9477 191.3001  1.00273991 16380",
            "SatelliteNumber": "45807",
            "Classification": "U",
            "LaunchYear": "20",
            "LaunchNumber": "040",
            "PieceOfLaunch": "A",
            "EpochYear": "24",
            "EpochDay": 331.03521987,
            "FirstDerivativeMeanMotion": -3.35e-06,
            "SecondDerivativeMeanMotion": "00000+0",
            "BSTAR": "00000+0",
            "SetNumber": "999",
            "Inclination": 1.0965,
            "RAAN": 56.4774,
            "Eccentricity": 0.0003426,
            "ArgumentOfPerigee": 300.9477,
            "MeanAnomaly": 191.3001,
            "MeanMotion": 1.00273991,
            "RevolutionNumber": "1638"
        },
        {
            "Name": "BEIDOU-3 G4 (C62)",
            "Line1": "1 56564U 23066A   24331.11654002 -.00000093  00000+0  00000+0 0  9996",
            "Line2": "2 56564   1.7219 289.0413 0004432 258.3927  80.1285  1.00271865  5700",
            "SatelliteNumber": "56564",
            "Classification": "U",
            "LaunchYear": "23",
            "LaunchNumber": "066",
            "PieceOfLaunch": "A",
            "EpochYear": "24",
            "EpochDay": 331.11654002,
            "FirstDerivativeMeanMotion": -9.3e-07,
            "SecondDerivativeMeanMotion": "00000+0",
            "BSTAR": "00000+0",
            "SetNumber": "999",
            "Inclination": 1.7219,
            "RAAN": 289.0413,
            "Eccentricity": 0.0004432,
            "ArgumentOfPerigee": 258.3927,
            "MeanAnomaly": 80.1285,
            "MeanMotion": 1.00271865,
            "RevolutionNumber": "570"
        }
    ]
}